ENDUROSAT ONE           
1 43551U 98067NZ  20245.43024823  .00150864  19609-4  45823-3 0  9995
2 43551  51.6279 241.8255 0005962  50.7245 309.4289 15.91745261122430
EQUISAT                 
1 43552U 98067PA  20245.49684316  .00052059  00000-0  29295-3 0  9994
2 43552  51.6287 256.7970 0005785  37.6447 322.4957 15.78664951122203
AEROCUBE 12A            
1 43556U 18046C   20245.86277617  .00002110  00000-0  83853-4 0  9994
2 43556  51.6419  98.3664 0007917 205.7963 154.2623 15.30000901119073
AEROCUBE 12B            
1 43557U 18046D   20245.80761869  .00001925  00000-0  78289-4 0  9996
2 43557  51.6420  99.4833 0007992 204.9771 155.0823 15.29694872119005
UITMSAT-1               
1 43589U 98067PD  20245.46910448  .00081554  00000-0  36383-3 0  9997
2 43589  51.6309 252.6494 0005699  52.0212 308.1305 15.83526290117996
MAYA-1                  
1 43590U 98067PE  20245.39857439  .00080509  00000-0  35900-3 0  9994
2 43590  51.6258 252.8827 0005547  47.6856 312.4616 15.83542334117911
BHUTAN-1                
1 43591U 98067PF  20245.29849784  .00089338  00000-0  39311-3 0  9997
2 43591  51.6321 253.0959 0005784  50.4501 309.7012 15.83781186117902
SIRIUSSAT-1             
1 43595U 98067PG  20245.76034526  .00062188  00000-0  33174-3 0  9998
2 43595  51.6250 257.6141 0004011  36.5535 323.5739 15.79785627117060
SIRIUSSAT-2             
1 43596U 98067PH  20245.51096627  .00064365  00000-0  34524-3 0  9991
2 43596  51.6246 259.7732 0004057  34.0168 326.1093 15.79650996117017
TANUSHA-3               
1 43597U 98067PJ  20245.23677656  .01447799  17336-2  91824-3 0  9993
2 43597  51.6159 237.1325 0002569  74.4480 285.6821 16.17387171117282
SURFSAT                 
1 43614U 18070B   20245.85505732  .00004104  00000-0  10425-3 0  9996
2 43614  93.0263 186.1958 0017292  49.5015 310.7742 15.39533332110234
CP7 (DAVE)              
1 43615U 18070C   20245.50407385  .00003945  00000-0  10076-3 0  9998
2 43615  93.0264 186.0360 0017491  50.2730 310.0063 15.39365608110177
ELFIN-B                 
1 43616U 18070D   20245.86424364  .00006385  00000-0  15501-3 0  9993
2 43616  93.0226 186.1542 0017856  49.8989 310.3828 15.40873453110282
ELFIN-A                 
1 43617U 18070E   20245.82261179  .00006207  00000-0  14966-3 0  9990
2 43617  93.0277 186.7134 0017158  47.5773 312.6930 15.41094610110283
CUBEBEL-1 (BSUSAT-1)    
1 43666U 18083E   20245.88943552  .00001003  00000-0  51992-4 0  9996
2 43666  97.4866 271.5893 0016622  94.1736  28.0438 15.18387450102212
CICERO 10               
1 43690U 18088A   20245.84601809  .00001083  00000-0  47835-4 0  9999
2 43690  85.0390  27.9713 0016128  37.2801 322.9556 15.20333233100342
IRVINE01                
1 43693U 18088D   20245.83939424  .00003081  00000-0  12821-3 0  9994
2 43693  85.0366  26.4280 0018045  17.3695 342.8160 15.23175059100470
PROXIMA I               
1 43694U 18088E   20245.42186150  .00001088  00000-0  45529-4 0  9997
2 43694  85.0334  26.5916 0019432  11.0416 349.1248 15.22086008100400
PROXIMA II              
1 43696U 18088G   20245.88020135  .00001081  00000-0  45228-4 0  9998
2 43696  85.0336  26.2928 0019395   9.3199 350.8398 15.22088346100468
FACSAT-1                
1 43721U 18096C   20245.86552199  .00001686  00000-0  65421-4 0  9992
2 43721  97.4162 319.0162 0016712 207.8154 152.2193 15.27404269 98059
CENTAURI-2              
1 43722U 18096D   20245.79819474  .00002610  00000-0  97993-4 0  9994
2 43722  97.4179 319.3015 0016740 207.4406 152.5951 15.27987123 98055
INNOSAT-2               
1 43738U 18096V   20245.82465289  .00003789  00000-0  12960-3 0  9994
2 43738  97.4203 321.6226 0022304 214.6598 145.3191 15.30659776 98213
SIRION PATHFINDER-2     
1 43759U 18099B   20245.79785356  .00000257  00000-0  28531-4 0  9995
2 43759  97.7002 316.1364 0012819 289.9535  70.0305 14.95305492 95349
CORVUS-BC 4             
1 43767U 18099K   20245.49957986 -.00000016  00000-0  37782-5 0  9994
2 43767  97.6986 315.1715 0010367 297.0861  62.9301 14.94752789 95266
MOVE-II                 
1 43780U 18099Y   20245.46930796  .00000702  00000-0  68551-4 0  9994
2 43780  97.7014 315.7699 0012114 303.7013  56.3053 14.95463674 95272
SPACEBEE-7              
1 43816U 18099BL  20245.46089634  .00000290  00000-0  31213-4 0  9997
2 43816  97.7026 316.1993 0011969 286.1668  73.8235 14.95746020 94852
SPACEBEE-5              
1 43817U 18099BM  20245.71573999  .00000519  00000-0  50800-4 0  9995
2 43817  97.7086 317.0240 0011677 285.0031  74.9898 14.96432850 94910
SPACEBEE-6              
1 43818U 18099BN  20245.74856172  .00001067  00000-0  10031-3 0  9996
2 43818  97.7046 316.6600 0011631 284.6585  75.3346 14.95960825 95057
SHIELDS 1               
1 43850U 18104B   20245.76148350  .00000564  00000-0  23213-4 0  9991
2 43850  85.0291 124.9210 0016164 142.6863 217.5505 15.21444528 95076
STF-1                   
1 43852U 18104D   20245.18601166  .00001295  00000-0  55785-4 0  9999
2 43852  85.0334 125.8901 0015145 157.9951 202.1945 15.21413353 94965
ZACUBE-2                
1 43907U 18111AH  20245.84832863  .00000585  00000-0  26427-4 0  9993
2 43907  97.2567 143.2806 0020030 231.1052 128.8400 15.24657229 93653
LUME 1                  
1 43908U 18111AJ  20245.35483922  .00001153  00000-0  48564-4 0  9996
2 43908  97.2569 143.0279 0019686 232.2747 127.6708 15.25169928 93592
AOBA VELOX-IV           
1 43940U 19003J   20245.09324420  .00002249  00000-0  91679-4 0  9993
2 43940  97.2219 293.7589 0022295 319.0091  40.9471 15.25251079 90177
CATSAT-2                
1 44029U 98067PV  20245.42884631  .00027567  00000-0  25114-3 0  9991
2 44029  51.6375 290.3353 0004716  23.3788 336.7422 15.67683919 90430
DELPHINI                
1 44030U 98067PW  20245.58169818  .00030173  00000-0  26031-3 0  9999
2 44030  51.6326 287.4499 0004898  20.9351 339.1845 15.68969290 90454
UNITE                   
1 44031U 98067PX  20245.44628708  .00013998  00000-0  15908-3 0  9990
2 44031  51.6372 298.6654 0003583  13.3511 346.7577 15.62614222 90291
CATSAT-1                
1 44033U 98067PZ  20245.42834470  .00028155  00000-0  25603-3 0  9999
2 44033  51.6378 290.3400 0004559  23.7461 336.3745 15.67717442 90341
RAAVANA-1               
1 44329U 98067QE  20245.43256567  .00014469  00000-0  18644-3 0  9993
2 44329  51.6398 312.8958 0005287 297.2596  62.7858 15.59275192 68853
UGUISU                  
1 44330U 98067QF  20245.64190703  .00014699  00000-0  18998-3 0  9994
2 44330  51.6372 312.0210 0005209 297.5571  62.4892 15.59178769 68868
NEPALISAT-1             
1 44331U 98067QG  20245.48825672  .00014918  00000-0  19190-3 0  9996
2 44331  51.6375 312.4975 0005325 300.2700  59.7766 15.59290388 68859
SPOOQY-1                
1 44332U 98067QH  20245.49687354  .00013973  00000-0  18104-3 0  9995
2 44332  51.6383 312.5595 0004462 304.5431  55.5140 15.59166699 68810
SPACEBEE-9              
1 44370U 19037F   20245.82233061  .00012545  00000-0  27135-3 0  9994
2 44370  45.0068  48.4401 0014435 273.4726  86.4512 15.44458398 66405
SPACEBEE-8              
1 44371U 19037G   20245.79219685  .00026341  00000-0  46650-3 0  9999
2 44371  45.0070  39.7865 0013289 277.7255  82.2128 15.49770654 66488
IOD-1 GEMS              
1 44385U 98067QK  20245.47778251  .00026958  00000-0  30249-3 0  9999
2 44385  51.6394 309.4959 0001375 288.9220  71.1625 15.62443371 66370
MOVE-IIB                
1 44398U 19038N   20245.63910594  .00001063  00000-0  64552-4 0  9995
2 44398  97.5410 205.9307 0023768 223.1202 136.7986 15.12467320 64090
SONATE                  
1 44400U 19038Q   20245.56148011  .00000942  00000-0  58337-4 0  9997
2 44400  97.5467 205.8625 0024151 221.5013 138.4344 15.12022827 64071
LUCKY-7                 
1 44406U 19038W   20245.62971699  .00000642  00000-0  40705-4 0  9993
2 44406  97.5461 206.0615 0023430 220.7291 139.2188 15.12299572 64080
BEESAT 9                
1 44412U 19038AC  20245.42525974  .00000873  00000-0  53837-4 0  9995
2 44412  97.5451 205.8416 0021335 227.3048 132.6386 15.12405493 63758
JAISAT-1                
1 44419U 19038F   20245.42128746  .00000858  00000-0  52330-4 0  9998
2 44419  97.5452 206.1596 0020218 226.1007 133.8555 15.12889290 64089
SWIATOWID               
1 44426U 98067QL  20245.77792916  .00027751  00000-0  29485-3 0  9994
2 44426  51.6417 306.7451 0001467 310.0204 154.4141 15.63827419 66446
KRAKSAT                 
1 44427U 98067QM  20245.63895823  .00009168  00000-0  13136-3 0  9999
2 44427  51.6447 316.2473 0002469 236.6390 276.1562 15.56960944 66343
VCC A                   
1 44428U 98067QN  20245.45751819  .00014464  00000-0  19135-3 0  9996
2 44428  51.6399 314.6097 0001828 279.7435  80.3351 15.58580049 66358
ENTRYSAT                
1 44429U 98067QP  20245.43650164  .00017381  00000-0  21768-3 0  9992
2 44429  51.6385 312.9316 0001519 280.3090  79.7732 15.59876243 66373
VCC C                   
1 44430U 98067QQ  20245.47278862  .00022971  00000-0  26904-3 0  9997
2 44430  51.6382 310.9322 0001816 315.5935  44.4913 15.61430902 65220
VCC B                   
1 44431U 98067QR  20245.39078115  .00014863  00000-0  19602-3 0  9996
2 44431  51.6386 314.8903 0001927 276.7942  83.2831 15.58637722 66284
ATL-1                   
1 44830U 19084G   20245.74085064  .00180737  13772-4  58862-3 0  9990
2 44830  96.9578 116.0994 0013566 296.8636  63.1251 15.90543731 42525
SMOG-P                  
1 44832U 19084J   20245.68644912  .00275225  31389-4  70312-3 0  9993
2 44832  96.9578 116.4842 0010942 289.6757  70.3339 15.95239845 42544
DUCHIFAT-3              
1 44854U 19089C   20245.69303144  .00000362  00000-0  35684-4 0  9996
2 44854  36.9677   7.7757 0009872 318.1060  41.8946 14.99114135 39746
EYESAT-NANO             
1 44877U 19092E   20245.46518706  .00001124  00000-0  60224-4 0  9997
2 44877  97.4571  67.5236 0015099 112.3314 247.9521 15.16953840 39119
